{
  "type": "FeatureCollection",
  "features": [
    {
      "type": "Feature",
      "properties": {
        "norad_id": 66378,
        "name": "SHIYAN-32 02",
        "group": "last-30-days",
        "lat": -38.55763795937479,
        "lon": -173.73081109117047,
        "alt_km": 434.42335373099104,
        "timestamp": "2025-12-03T04:52:28.419326+00:00",
        "meta_object_name": "SHIYAN-32 02",
        "meta_object_id": "2025-255C",
        "meta_epoch": "2025-12-02T18:13:17.123808",
        "meta_mean_motion": 15.44006466,
        "meta_eccentricity": 0.0012608,
        "meta_inclination": 52.9976,
        "meta_ra_of_asc_node": 225.3337,
        "meta_arg_of_pericenter": 9.7234,
        "meta_mean_anomaly": 350.4012,
        "meta_ephemeris_type": 0,
        "meta_classification_type": "U",
        "meta_norad_cat_id": 66378,
        "meta_element_set_no": 999,
        "meta_rev_at_epoch": 367,
        "meta_bstar": 0.0014858,
        "meta_mean_motion_dot": 0.00069194,
        "meta_mean_motion_ddot": 0,
        "tle_line1": "1 66378U 25255C   25336.75922597  .00069194  00000+0  14858-2 0  9990",
        "tle_line2": "2 66378  52.9976 225.3337 0012608   9.7234 350.4012 15.44006466  3674"
      },
      "geometry": {
        "type": "Point",
        "coordinates": [
          -173.73081109117047,
          -38.55763795937479
        ]
      }
    },
    {
      "type": "Feature",
      "properties": {
        "norad_id": 66379,
        "name": "SHIYAN-32 03",
        "group": "last-30-days",
        "lat": -47.329602606871084,
        "lon": 98.23907288728451,
        "alt_km": 449.26395921978656,
        "timestamp": "2025-12-03T04:52:28.419338+00:00",
        "meta_object_name": "SHIYAN-32 03",
        "meta_object_id": "2025-255D",
        "meta_epoch": "2025-12-02T20:01:59.146176",
        "meta_mean_motion": 15.42605406,
        "meta_eccentricity": 0.0015413,
        "meta_inclination": 52.9973,
        "meta_ra_of_asc_node": 225.0922,
        "meta_arg_of_pericenter": 12.4506,
        "meta_mean_anomaly": 347.6876,
        "meta_ephemeris_type": 0,
        "meta_classification_type": "U",
        "meta_norad_cat_id": 66379,
        "meta_element_set_no": 999,
        "meta_rev_at_epoch": 370,
        "meta_bstar": 0.00055263,
        "meta_mean_motion_dot": 0.00024169,
        "meta_mean_motion_ddot": 0,
        "tle_line1": "1 66379U 25255D   25336.83471234  .00024169  00000+0  55263-3 0  9996",
        "tle_line2": "2 66379  52.9973 225.0922 0015413  12.4506 347.6876 15.42605406  3706"
      },
      "geometry": {
        "type": "Point",
        "coordinates": [
          98.23907288728451,
          -47.329602606871084
        ]
      }
    },
    {
      "type": "Feature",
      "properties": {
        "norad_id": 66380,
        "name": "STARLINK-35139",
        "group": "last-30-days",
        "lat": -11.207493048357078,
        "lon": 138.13259955065226,
        "alt_km": 449.4652342392774,
        "timestamp": "2025-12-03T04:52:28.419349+00:00",
        "meta_object_name": "STARLINK-35139",
        "meta_object_id": "2025-257A",
        "meta_epoch": "2025-12-02T20:00:03.000384",
        "meta_mean_motion": 15.3955081,
        "meta_eccentricity": 0.0001095,
        "meta_inclination": 53.1585,
        "meta_ra_of_asc_node": 311.3319,
        "meta_arg_of_pericenter": 101.6015,
        "meta_mean_anomaly": 201.9081,
        "meta_ephemeris_type": 0,
        "meta_classification_type": "U",
        "meta_norad_cat_id": 66380,
        "meta_element_set_no": 999,
        "meta_rev_at_epoch": 484,
        "meta_bstar": 0.0024658,
        "meta_mean_motion_dot": 0.00099297,
        "meta_mean_motion_ddot": 0,
        "tle_line1": "1 66380U 25257A   25336.83336806  .00099297  00000+0  24658-2 0  9992",
        "tle_line2": "2 66380  53.1585 311.3319 0001095 101.6015 201.9081 15.39550810  4846"
      },
      "geometry": {
        "type": "Point",
        "coordinates": [
          138.13259955065226,
          -11.207493048357078
        ]
      }
    },
    {
      "type": "Feature",
      "properties": {
        "norad_id": 66381,
        "name": "STARLINK-35158",
        "group": "last-30-days",
        "lat": -12.65760648691835,
        "lon": 139.27878691787856,
        "alt_km": 449.6434241541401,
        "timestamp": "2025-12-03T04:52:28.419359+00:00",
        "meta_object_name": "STARLINK-35158",
        "meta_object_id": "2025-257B",
        "meta_epoch": "2025-12-02T20:00:03.000384",
        "meta_mean_motion": 15.39548291,
        "meta_eccentricity": 0.0001376,
        "meta_inclination": 53.1586,
        "meta_ra_of_asc_node": 311.3277,
        "meta_arg_of_pericenter": 102.3227,
        "meta_mean_anomaly": 203.0225,
        "meta_ephemeris_type": 0,
        "meta_classification_type": "U",
        "meta_norad_cat_id": 66381,
        "meta_element_set_no": 999,
        "meta_rev_at_epoch": 490,
        "meta_bstar": 0.0025059,
        "meta_mean_motion_dot": 0.00100933,
        "meta_mean_motion_ddot": 0,
        "tle_line1": "1 66381U 25257B   25336.83336806  .00100933  00000+0  25059-2 0  9999",
        "tle_line2": "2 66381  53.1586 311.3277 0001376 102.3227 203.0225 15.39548291  4906"
      },
      "geometry": {
        "type": "Point",
        "coordinates": [
          139.27878691787856,
          -12.65760648691835
        ]
      }
    },
    {
      "type": "Feature",
      "properties": {
        "norad_id": 66382,
        "name": "STARLINK-35639",
        "group": "last-30-days",
        "lat": -30.820683018940795,
        "lon": 156.10675908213037,
        "alt_km": 451.73219546282326,
        "timestamp": "2025-12-03T04:52:28.419369+00:00",
        "meta_object_name": "STARLINK-35639",
        "meta_object_id": "2025-257C",
        "meta_epoch": "2025-12-02T20:00:03.000384",
        "meta_mean_motion": 15.39697806,
        "meta_eccentricity": 0.0001463,
        "meta_inclination": 53.1589,
        "meta_ra_of_asc_node": 311.2786,
        "meta_arg_of_pericenter": 101.2849,
        "meta_mean_anomaly": 227.9354,
        "meta_ephemeris_type": 0,
        "meta_classification_type": "U",
        "meta_norad_cat_id": 66382,
        "meta_element_set_no": 999,
        "meta_rev_at_epoch": 490,
        "meta_bstar": -0.0042074,
        "meta_mean_motion_dot": -0.00165519,
        "meta_mean_motion_ddot": 0,
        "tle_line1": "1 66382U 25257C   25336.83336806 -.00165519  00000+0 -42074-2 0  9999",
        "tle_line2": "2 66382  53.1589 311.2786 0001463 101.2849 227.9354 15.39697806  4904"
      },
      "geometry": {
        "type": "Point",
        "coordinates": [
          156.10675908213037,
          -30.820683018940795
        ]
      }
    },
    {
      "type": "Feature",
      "properties": {
        "norad_id": 66383,
        "name": "STARLINK-35690",
        "group": "last-30-days",
        "lat": -46.25167537736402,
        "lon": -178.95492981522824,
        "alt_km": 447.8146057484355,
        "timestamp": "2025-12-03T04:52:28.419381+00:00",
        "meta_object_name": "STARLINK-35690",
        "meta_object_id": "2025-257D",
        "meta_epoch": "2025-12-02T20:00:03.000384",
        "meta_mean_motion": 15.42848594,
        "meta_eccentricity": 0.000136,
        "meta_inclination": 53.159,
        "meta_ra_of_asc_node": 311.2361,
        "meta_arg_of_pericenter": 109.3994,
        "meta_mean_anomaly": 241.351,
        "meta_ephemeris_type": 0,
        "meta_classification_type": "U",
        "meta_norad_cat_id": 66383,
        "meta_element_set_no": 999,
        "meta_rev_at_epoch": 490,
        "meta_bstar": -0.049025,
        "meta_mean_motion_dot": -0.01951995,
        "meta_mean_motion_ddot": 0,
        "tle_line1": "1 66383U 25257D   25336.83336806 -.01951995  00000+0 -49025-1 0  9994",
        "tle_line2": "2 66383  53.1590 311.2361 0001360 109.3994 241.3510 15.42848594  4902"
      },
      "geometry": {
        "type": "Point",
        "coordinates": [
          -178.95492981522824,
          -46.25167537736402
        ]
      }
    },
    {
      "type": "Feature",
      "properties": {
        "norad_id": 66384,
        "name": "STARLINK-35662",
        "group": "last-30-days",
        "lat": -47.145294862685965,
        "lon": -176.60586165505512,
        "alt_km": 447.87852093819674,
        "timestamp": "2025-12-03T04:52:28.419394+00:00",
        "meta_object_name": "STARLINK-35662",
        "meta_object_id": "2025-257E",
        "meta_epoch": "2025-12-02T20:00:03.000384",
        "meta_mean_motion": 15.42839793,
        "meta_eccentricity": 0.0001228,
        "meta_inclination": 53.1591,
        "meta_ra_of_asc_node": 311.2327,
        "meta_arg_of_pericenter": 102.9699,
        "meta_mean_anomaly": 249.6433,
        "meta_ephemeris_type": 0,
        "meta_classification_type": "U",
        "meta_norad_cat_id": 66384,
        "meta_element_set_no": 999,
        "meta_rev_at_epoch": 490,
        "meta_bstar": -0.049102,
        "meta_mean_motion_dot": -0.01954153,
        "meta_mean_motion_ddot": 0,
        "tle_line1": "1 66384U 25257E   25336.83336806 -.01954153  00000+0 -49102-1 0  9990",
        "tle_line2": "2 66384  53.1591 311.2327 0001228 102.9699 249.6433 15.42839793  4906"
      },
      "geometry": {
        "type": "Point",
        "coordinates": [
          -176.60586165505512,
          -47.145294862685965
        ]
      }
    }
  ]
}